CCSDS_OEM_VERS = 1.0
CREATION_DATE  = 2017-05-11T11:00:24
ORIGINATOR     = GMAT USER

META_START
OBJECT_NAME          = MOPSSat_alt_35785_km_RAAN_0_062
OBJECT_ID            = SatId
CENTER_NAME          = Earth
REF_FRAME            = EME2000
TIME_SYSTEM          = UTC
START_TIME           = 2017-01-01T00:00:00.000
USEABLE_START_TIME   = 2017-01-01T00:00:00.000
USEABLE_STOP_TIME    = 2017-01-02T00:00:00.000
STOP_TIME            = 2017-01-02T00:00:00.000
INTERPOLATION        = Lagrange
INTERPOLATION_DEGREE = 7 
META_STOP


                                                                                   

2017-01-01T21:32:30.000   3.411617957621896e+04  -2.476672015320403e+04  -4.331201105273436e+02   1.806486635230245e+00   2.488038090640259e+00   4.330345794614883e-02
2017-01-01T21:32:40.000   3.413423536807008e+04  -2.474183318755056e+04  -4.326869609912499e+02   1.804671519856965e+00   2.489354743566665e+00   4.332644411348464e-02
2017-01-01T21:32:50.000   3.415227300400427e+04  -2.471693306193309e+04  -4.322535817077132e+02   1.802855444246138e+00   2.490670072550253e+00   4.334940724528061e-02
2017-01-01T21:33:00.000   3.417029247434248e+04  -2.469201978970717e+04  -4.318199729091097e+02   1.801038409372016e+00   2.491984076884807e+00   4.337234732923317e-02
2017-01-01T21:33:10.000   3.418829376941393e+04  -2.466709338423741e+04  -4.313861348279735e+02   1.799220416209517e+00   2.493296755864717e+00   4.339526435304916e-02
2017-01-01T21:33:20.000   3.420627687962099e+04  -2.464215385880881e+04  -4.309520676954539e+02   1.797401465727751e+00   2.494608108789710e+00   4.341815830452866e-02
2017-01-01T21:33:30.000   3.422424179539561e+04  -2.461720122668562e+04  -4.305177717423383e+02   1.795581558894320e+00   2.495918134961665e+00   4.344102917150926e-02
2017-01-01T21:33:40.000   3.424218850719945e+04  -2.459223550111147e+04  -4.300832471990560e+02   1.793760696675315e+00   2.497226833684629e+00   4.346387694186642e-02
2017-01-01T21:33:50.000   3.426011700556596e+04  -2.456725669524930e+04  -4.296484942946320e+02   1.791938880030950e+00   2.498534204267887e+00   4.348670160356682e-02
2017-01-01T21:34:00.000   3.427802728103672e+04  -2.454226482227105e+04  -4.292135132582475e+02   1.790116109922094e+00   2.499840246021319e+00   4.350950314458764e-02
2017-01-01T21:34:10.000   3.429591932415521e+04  -2.451725989536676e+04  -4.287783043193994e+02   1.788292387310935e+00   2.501144958254937e+00   4.353228155290822e-02
2017-01-01T21:34:20.000   3.431379312544774e+04  -2.449224192776863e+04  -4.283428677083180e+02   1.786467713162738e+00   2.502448340277505e+00   4.355503681648620e-02
2017-01-01T21:34:30.000   3.433164867541057e+04  -2.446721093277198e+04  -4.279072036563329e+02   1.784642088447376e+00   2.503750391395601e+00   4.357776892324083e-02
2017-01-01T21:34:40.000   3.434948596456196e+04  -2.444216692366131e+04  -4.274713123945846e+02   1.782815514133928e+00   2.505051110917399e+00   4.360047786111933e-02
2017-01-01T21:34:50.000   3.436730498320883e+04  -2.441710991404143e+04  -4.270351941597901e+02   1.780987991214839e+00   2.506350498135669e+00   4.362316361779986e-02
2017-01-01T21:35:00.000   3.438510572172985e+04  -2.439203991743644e+04  -4.265988491872608e+02   1.779159520676668e+00   2.507648552348410e+00   4.364582618105184e-02
2017-01-01T21:35:10.000   3.440288817046995e+04  -2.436695694743865e+04  -4.261622777134953e+02   1.777330103510951e+00   2.508945272851165e+00   4.366846553860172e-02
2017-01-01T21:35:20.000   3.442065232014971e+04  -2.434186101713185e+04  -4.257254799661418e+02   1.775499740672130e+00   2.510240658966861e+00   4.369108167865412e-02
2017-01-01T21:35:30.000   3.443839816145677e+04  -2.431675213966643e+04  -4.252884561740081e+02   1.773668433119513e+00   2.511534710016036e+00   4.371367458937178e-02
2017-01-01T21:35:40.000   3.445612568513888e+04  -2.429163032812937e+04  -4.248512065647981e+02   1.771836181807779e+00   2.512827425323604e+00   4.373624425899383e-02
2017-01-01T21:35:50.000   3.447383488177169e+04  -2.426649559586776e+04  -4.244137313707425e+02   1.770002987710582e+00   2.514118804201930e+00   4.375879067554032e-02
2017-01-01T21:36:00.000   3.449152574193188e+04  -2.424134795624906e+04  -4.239760308244280e+02   1.768168851803062e+00   2.515408845963458e+00   4.378131382703251e-02
2017-01-01T21:36:10.000   3.450919825619607e+04  -2.421618742266040e+04  -4.235381051587827e+02   1.766333775061793e+00   2.516697549920624e+00   4.380381370149158e-02
2017-01-01T21:36:20.000   3.452685241497337e+04  -2.419101400875224e+04  -4.230999546113184e+02   1.764497758482556e+00   2.517984915373654e+00   4.382629028672546e-02
2017-01-01T21:36:30.000   3.454448820873199e+04  -2.416582772811080e+04  -4.226615794184293e+02   1.762660803056449e+00   2.519270941627079e+00   4.384874357061719e-02
2017-01-01T21:36:40.000   3.456210562790962e+04  -2.414062859438693e+04  -4.222229798176336e+02   1.760822909779282e+00   2.520555627983208e+00   4.387117354101093e-02
2017-01-01T21:36:50.000   3.457970466331115e+04  -2.411541662072744e+04  -4.217841560376782e+02   1.758984079610107e+00   2.521838973771128e+00   4.389358018621834e-02
2017-01-01T21:37:00.000   3.459728530571078e+04  -2.409019182034363e+04  -4.213451083084311e+02   1.757144313512678e+00   2.523120978317686e+00   4.391596349451197e-02
2017-01-01T21:37:10.000   3.461484754594239e+04  -2.406495420638293e+04  -4.209058368586498e+02   1.755303612446094e+00   2.524401640954083e+00   4.393832345424024e-02
2017-01-01T21:37:20.000   3.463239137466947e+04  -2.403970379225405e+04  -4.204663419216388e+02   1.753461977388508e+00   2.525680960999094e+00   4.396066005353471e-02
2017-01-01T21:37:30.000   3.464991678255663e+04  -2.401444059138603e+04  -4.200266237310571e+02   1.751619409319560e+00   2.526958937771579e+00   4.398297328052826e-02
2017-01-01T21:37:40.000   3.466742376026859e+04  -2.398916461722761e+04  -4.195866825209064e+02   1.749775909220325e+00   2.528235570590403e+00   4.400526312335389e-02
2017-01-01T21:37:50.000   3.468491229830433e+04  -2.396387588349190e+04  -4.191465185297903e+02   1.747931478091162e+00   2.529510858762347e+00   4.402752956993349e-02
2017-01-01T21:38:00.000   3.470238238722143e+04  -2.393857440382746e+04  -4.187061319951885e+02   1.746086116927721e+00   2.530784801598466e+00   4.404977260826355e-02
2017-01-01T21:38:10.000   3.471983401754574e+04  -2.391326019195006e+04  -4.182655231557514e+02   1.744239826730558e+00   2.532057398407500e+00   4.407199222630014e-02
2017-01-01T21:38:20.000   3.473726718017183e+04  -2.388793326106195e+04  -4.178246922411906e+02   1.742392608462776e+00   2.533328648525081e+00   4.409418841246871e-02
2017-01-01T21:38:30.000   3.475468186596136e+04  -2.386259362443398e+04  -4.173836394824126e+02   1.740544463092478e+00   2.534598551284438e+00   4.411636115515283e-02
2017-01-01T21:38:40.000   3.477207806584696e+04  -2.383724129525543e+04  -4.169423651089035e+02   1.738695391581824e+00   2.535867106023975e+00   4.413851044282630e-02
2017-01-01T21:38:50.000   3.478945577055230e+04  -2.381187628703739e+04  -4.165008693557511e+02   1.736845394916441e+00   2.537134312066864e+00   4.416063626369694e-02
2017-01-01T21:39:00.000   3.480681497082351e+04  -2.378649861328011e+04  -4.160591524578552e+02   1.734994474081170e+00   2.538400168737910e+00   4.418273860600098e-02
2017-01-01T21:39:10.000   3.482415565737566e+04  -2.376110828754966e+04  -4.156172146512603e+02   1.733142630065651e+00   2.539664675359655e+00   4.420481745793525e-02
2017-01-01T21:39:20.000   3.484147782091463e+04  -2.373570532344890e+04  -4.151750561726522e+02   1.731289863862211e+00   2.540927831253972e+00   4.422687280768468e-02
2017-01-01T21:39:30.000   3.485878145214574e+04  -2.371028973460260e+04  -4.147326772590979e+02   1.729436176464773e+00   2.542189635742692e+00   4.424890464343346e-02
2017-01-01T21:39:40.000   3.487606654179437e+04  -2.368486153462700e+04  -4.142900781475160e+02   1.727581568866640e+00   2.543450088149113e+00   4.427091295339140e-02
2017-01-01T21:39:50.000   3.489333308061692e+04  -2.365942073711630e+04  -4.138472590744417e+02   1.725726042059508e+00   2.544709187798792e+00   4.429289772580761e-02
2017-01-01T21:40:00.000   3.491058105941965e+04  -2.363396735561183e+04  -4.134042202754898e+02   1.723869597031217e+00   2.545966934020923e+00   4.431485894899473e-02
2017-01-01T21:40:10.000   3.492781046900691e+04  -2.360850140367969e+04  -4.129609619867071e+02   1.722012234771418e+00   2.547223326144565e+00   4.433679661126298e-02
2017-01-01T21:40:20.000   3.494502130040641e+04  -2.358302289457403e+04  -4.125174844387096e+02   1.720153956247004e+00   2.548478363515055e+00   4.435871070120675e-02
2017-01-01T21:40:30.000   3.496221354459570e+04  -2.355753184164482e+04  -4.120737878637825e+02   1.718294762431865e+00   2.549732045474087e+00   4.438060120735677e-02
2017-01-01T21:40:40.000   3.497938719260595e+04  -2.353202825818387e+04  -4.116298724931974e+02   1.716434654295645e+00   2.550984371367254e+00   4.440246811831178e-02
2017-01-01T21:40:50.000   3.499654223512005e+04  -2.350651215802097e+04  -4.111857385675914e+02   1.714573632847228e+00   2.552235340514757e+00   4.442431142222716e-02
2017-01-01T21:41:00.000   3.501367866287459e+04  -2.348098355492788e+04  -4.107413863265909e+02   1.712711699091268e+00   2.553484952240714e+00   4.444613110732653e-02
2017-01-01T21:41:10.000   3.503079646655586e+04  -2.345544246277197e+04  -4.102968160114867e+02   1.710848854039388e+00   2.554733205865573e+00   4.446792716176955e-02
2017-01-01T21:41:20.000   3.504789563707538e+04  -2.342988889510984e+04  -4.098520278581607e+02   1.708985098680553e+00   2.555980100726210e+00   4.448969957400246e-02
2017-01-01T21:41:30.000   3.506497616534217e+04  -2.340432286552246e+04  -4.094070221029187e+02   1.707120434005501e+00   2.557225636159317e+00   4.451144833246844e-02
